OBJECT_NAME,OBJECT_ID,EPOCH,MEAN_MOTION,ECCENTRICITY,INCLINATION,RA_OF_ASC_NODE,ARG_OF_PERICENTER,MEAN_ANOMALY,EPHEMERIS_TYPE,CLASSIFICATION_TYPE,NORAD_CAT_ID,ELEMENT_SET_NO,REV_AT_EPOCH,BSTAR,MEAN_MOTION_DOT,MEAN_MOTION_DDOT
ICEYE-X43,2024-149BZ,2026-06-15T03:50:54.520800,14.99603670,.00081758,97.6783,243.1525,90.8145,269.4016,0,U,60539,999,9981,.2929746E-3,.3549E-4,0
HAWK-10A,2024-149CA,2026-06-15T03:55:45.483168,14.96510964,.00051002,97.6897,242.1098,84.0473,276.1330,0,U,60540,999,9968,.19211226E-3,.2126E-4,0
UMBRA-09,2024-149CB,2026-06-15T11:39:01.816416,15.18001234,.00004326,97.6976,253.6614,288.4883,71.6303,0,U,60541,999,10046,.67656201E-3,.13701E-3,0
QPS-SAR-8 (AMATERU-IV),2024-149CC,2026-06-15T04:44:58.645536,15.04118762,.00049331,97.6669,245.3648,112.0970,248.0780,0,U,60542,999,9997,.27151314E-3,.3703E-4,0
ARCTIC WEATHER SATELLITE,2024-149CD,2026-06-15T11:23:22.447104,14.89804052,.00036315,97.6801,236.9891,107.1606,253.0010,0,U,60543,999,9904,.87167133E-4,.783E-5,0
CAPELLA-15 (ACADIA-5),2024-149CE,2026-06-15T10:41:05.546112,14.92384147,.00048369,97.6772,239.3917,83.0069,277.1701,0,U,60544,999,9959,.26595395E-3,.2667E-4,0
HAWK-10B,2024-149CF,2026-06-15T03:55:32.233728,14.96510329,.0007043,97.6817,241.4668,98.3336,261.8685,0,U,60545,999,9968,.17208967E-3,.1899E-4,0
ICEYE-X39,2024-149CG,2026-06-15T14:37:21.551808,14.99888491,.00051063,97.6766,243.6542,122.8686,237.3029,0,U,60546,999,9988,.24240534E-3,.2947E-4,0
UMBRA-10,2024-149CH,2026-06-15T11:38:23.410752,15.17998592,.00006693,97.6985,253.6886,72.4488,287.6819,0,U,60547,999,10047,.5929158E-3,.11995E-3,0
ICEYE-X33,2024-149CJ,2026-06-15T12:03:27.950976,15.00887084,.00015911,97.7215,245.6519,99.4442,260.6961,0,U,60548,999,9995,.33256737E-3,.4173E-4,0
ICEYE-X40,2024-149CK,2026-06-15T11:58:32.431872,14.97935199,.00066424,97.6816,243.0215,86.9429,273.2553,0,U,60549,999,9982,.20299782E-3,.2335E-4,0
SATELIOT_1,2024-149CL,2026-06-15T03:45:07.643808,14.98059240,.00083981,97.6749,242.0873,86.7678,273.4505,0,U,60550,999,9976,.21206573E-3,.2451E-4,0
BRO-14,2024-149CM,2026-06-15T04:32:05.986752,14.96173389,.00080597,97.6876,242.0026,101.8327,258.3799,0,U,60551,999,9969,.56470008E-4,.579E-5,0
SATELIOT_3,2024-149CN,2026-06-15T04:46:22.739520,14.98046230,.00058957,97.6818,242.9200,90.8957,269.2941,0,U,60552,999,9978,.13780455E-3,.1571E-4,0
BRO-15,2024-149CP,2026-06-15T04:06:48.316320,14.96155961,.0009604,97.6812,241.5889,93.6519,266.5800,0,U,60553,999,9970,.95527E-4,.1019E-4,0
UM5-RIBAT,2024-149CQ,2026-06-15T03:20:11.880960,15.01066259,.0003611,97.6641,243.9670,64.9424,295.2175,0,U,60554,999,9988,.22533999E-3,.2822E-4,0
UM5-EOSAT,2024-149CR,2026-06-15T02:32:41.276256,15.01515603,.00087436,97.6705,244.8662,120.7212,239.4875,0,U,60555,999,9990,.3225442E-3,.4117E-4,0
LASARSAT,2024-247Q,2026-06-13T14:48:20.082240,15.46168743,.0008375,44.9751,282.2745,311.5212,48.4959,0,U,62391,999,8276,.65515E-3,.32689E-3,0
CROCUBE,2024-247T,2026-06-14T14:05:15.116064,15.48102542,.0008187,44.9722,274.1999,320.7516,39.2780,0,U,62394,999,8294,.65094E-3,.34757E-3,0
TEVEL2-4,2025-052D,2026-06-15T03:51:32.563584,15.34549992,.00048464,97.3913,62.5494,107.3580,252.8193,0,U,63213,999,6980,.44472787E-3,.14823E-3,0
TEVEL2-5,2025-052E,2026-06-15T12:10:17.034240,15.34389584,.00047559,97.3909,62.8448,107.9280,252.2482,0,U,63214,999,6985,.4733208E-3,.15702E-3,0
TEVEL2-6,2025-052F,2026-06-15T10:54:04.442112,15.34350757,.0004671,97.3915,62.7761,108.6521,251.5230,0,U,63215,999,6984,.45209659E-3,.14975E-3,0
TEVEL2-1,2025-052H,2026-06-15T05:19:13.697184,15.33812138,.0004698,97.3885,62.1701,117.4022,242.7699,0,U,63217,999,6979,.43283E-3,.14089E-3,0
TEVEL2-3,2025-052J,2026-06-15T05:11:36.965184,15.33867104,.0004653,97.3890,62.1864,117.3895,242.7821,0,U,63218,999,6979,.44668E-3,.14569E-3,0
TEVEL2-2,2025-052K,2026-06-15T05:19:41.771136,15.33820586,.0004671,97.3886,62.1729,117.7960,242.3756,0,U,63219,999,6979,.43999E-3,.14328E-3,0
TEVEL2-9,2025-052AD,2026-06-15T06:17:35.765664,15.31847587,.0007638,97.3947,61.5923,136.2266,223.9582,0,U,63237,999,6973,.43321E-3,.13263E-3,0
TEVEL2-7,2025-052AE,2026-06-15T05:41:53.334240,15.31552974,.0007732,97.3951,61.4847,136.5558,223.6294,0,U,63238,999,6972,.42471E-3,.12882E-3,0
TEVEL2-8,2025-052AF,2026-06-15T12:10:04.663488,15.31544661,.0007754,97.3950,61.7304,136.5757,223.6096,0,U,63239,999,6976,.44078135E-3,.1337E-3,0
FORESAIL-1 PRIME,2025-276DS,2026-06-15T03:38:26.750400,15.18685264,.00039386,97.4203,239.4592,109.0976,251.0685,0,U,66778,999,3009,.21912264E-3,.4477E-4,0
